CAS-2T & KS-1Q          
1 41847U 16066G   20217.14668788  .00000071  00000-0  20140-4 0  9992
2 41847  98.6504 268.1324 0366773  86.8483 277.4593 14.38082124196278
NAYIF-1 (EO-88)         
1 42017U 17008BX  20217.40007515  .00001601  00000-0  63890-4 0  9992
2 42017  97.3573 284.2588 0007234 140.8564 219.3200 15.26610572192869
MAX VALIER SAT          
1 42778U 17036P   20216.85564624  .00000840  00000-0  38936-4 0  9991
2 42778  97.3016 269.1731 0011297 208.0688 151.9941 15.22688672172947
RADFXSAT (FOX-1B)       
1 43017U 17073E   20217.28948796  .00000301  00000-0  29489-4 0  9998
2 43017  97.7197 127.6794 0255353 254.4396 102.8497 14.78984510146233
FOX-1D (AO-92)          
1 43137U 18004AC  20217.14740883  .00000933  00000-0  41247-4 0  9995
2 43137  97.4435 287.9817 0007609 243.2372 116.8087 15.24197925142305
DIWATA-2B               
1 43678U 18084H   20217.50474133  .00000390  00000-0  44496-4 0  9991
2 43678  97.8893 335.9199 0010494  26.1627 334.0121 14.91645085 96186
ES'HAIL 2               
1 43700U 18090A   20216.87001671  .00000126  00000-0  00000-0 0  9992
2 43700   0.0155  79.0116 0002026  77.0982 135.7290  1.00272512  6186
FOX-1CLIFF (AO-95)      
1 43770U 18099N   20217.16347087  .00000223  00000-0  25578-4 0  9994
2 43770  97.7038 287.7074 0015598  42.8170 317.4262 14.95017335 91049
ITASAT 1                
1 43786U 18099AE  20216.14591544  .00000585  00000-0  58082-4 0  9994
2 43786  97.7054 287.1608 0016065  40.0370 320.2032 14.95350114 90910
JY1SAT (JO-97)          
1 43803U 18099AX  20217.15846538  .00000479  00000-0  48297-4 0  9991
2 43803  97.7015 287.9638 0016047  37.1402 323.0926 14.95534826 91065
PSAT2 (NO-104)          
1 44354U 19036R   20216.77783283  .00016041  00000-0  23385-3 0  9991
2 44354  28.5296  69.6695 0361677  96.6538 267.5343 15.04213635 60941
BRICSAT2 (NO-103)       
1 44355U 19036S   20215.88184386  .00032892  00000-0  45552-3 0  9994
2 44355  28.5297  64.3119 0337906 105.3104 258.5089 15.10245692 60921
JAISAT-1                
1 44419U 19038F   20217.11274318  .00000837  00000-0  51171-4 0  9999
2 44419  97.5418 178.1606 0020768 330.7752  29.2315 15.12845598 59809
DUCHIFAT-3              
1 44854U 19089C   20217.25208535  .00000309  00000-0  31366-4 0  9999
2 44854  36.9675 175.8681 0007463  84.5262 275.6323 14.99094069 35474
RS-44 & BREEZE-KM R/B   
1 44909U 19096E   20216.42499418  .00000012  00000-0 -50088-5 0  9993
2 44909  82.5242 324.1025 0218451 116.6075 245.7589 12.79707952 28194
ORBITAL FACTORY 2 (OF-2)
1 45113U 19071C   20216.86358441  .00001477  00000-0  56407-4 0  9997
2 45113  51.6442 134.4998 0012409 226.9588 133.0355 15.33489090 28408
HUSKYSAT-1              
1 45119U 19071J   20217.16124333  .00001592  00000-0  59513-4 0  9997
2 45119  51.6436 132.7379 0011752 224.0744 135.9302 15.33697626 28447
